satname,norad_id,inclination_deg,eccentricity,mean_motion_rev_per_day,perigee_km,apogee_km,l1,l2
STARLINK-1297,45395,53.0538,0.0001095,15.42419705,438.2238525192224,439.71679902356664,1 45395U 20019AM  26024.58335647  .01227483  00000+0  25326-1 0  9998,2 45395  53.0538 342.2447 0001095  91.4759 303.2863 15.42419705  5837
STARLINK-1307,45397,53.0566,0.0001454,15.45167229,429.89671508792253,431.8767791935916,1 45397U 20019AP  26024.58335647 -.00054921  00000+0 -11392-2 0  9995,2 45397  53.0566 341.7078 0001454  99.0656 251.1869 15.45167229  5430
STARLINK-1255,45399,53.0477,0.0006306,15.43126562,432.59081236199836,441.18592235531196,1 45399U 20019AR  26024.00008601  .00033227  00000+0  74475-3 0  9997,2 45399  53.0477 316.4381 0006306  82.5810 277.5911 15.43126562323514
STARLINK-1260,45404,53.1351,0.0001634,15.24708705,490.5377509868995,492.78280073665064,1 45404U 20019AW  26024.58335647  .01539705  00000+0  55960-1 0  9999,2 45404  53.1351 334.0054 0001634  74.6155 194.1419 15.24708705  5630
STARLINK-1263,45405,53.1341,0.0001563,15.24487413,491.25121195056363,493.3989183921358,1 45405U 20019AX  26024.58335647  .00902026  00000+0  33599-1 0  9993,2 45405  53.1341 334.0131 0001563  92.7798 252.2125 15.24487413  5844
STARLINK-1265,45406,53.1311,0.0001782,15.23899828,492.8663949494812,495.3156570179417,1 45406U 20019AY  26024.58335647  .00945349  00000+0  35700-1 0  9995,2 45406  53.1311 334.0742 0001782  93.8998 177.3165 15.23899828  5686
STARLINK-1278,45408,53.0501,0.0005568,15.46429251,423.3925342783432,430.9709372224743,1 45408U 20019BA  26024.19845405  .00171704  00000+0  33451-2 0  9990,2 45408  53.0501 344.3021 0005568  26.6212 333.5079 15.46429251323059
STARLINK-1296,45412,53.1215,0.0001347,15.21782548,499.5372938998489,501.39038896653165,1 45412U 20019BE  26024.58335647  .00783841  00000+0  31564-1 0  9993,2 45412  53.1215 333.8758 0001347  76.6431 283.7357 15.21782548  5681
STARLINK-1298,45413,53.0416,0.0008616,15.75287798,338.0207119015822,349.60397501022453,1 45413U 20019BF  26024.58335647  .00241466  00000+0  15287-2 0  9991,2 45413  53.0416 276.9235 0008616 135.9502 105.8620 15.75287798  6016
STARLINK-1309,45414,53.0702,0.0001278,15.22176294,498.39865088420265,500.15651805199195,1 45414U 20019BG  26024.58335647  .00091167  00000+0  38874-2 0  9990,2 45414  53.0702 334.0769 0001278 105.4605  52.5284 15.22176294  5783
STARLINK-1316,45415,53.1309,0.0001913,15.23892319,492.79893975613686,495.4282628361934,1 45415U 20019BH  26024.58335647  .00944926  00000+0  35693-1 0  9996,2 45415  53.1309 334.0740 0001913  95.8782 295.3112 15.23892319  5647
STARLINK-1318,45416,53.0407,0.0004889,15.82249304,320.80453172705893,327.35796072821995,1 45416U 20019BJ  26024.58335647  .00339680  00000+0  15547-2 0  9999,2 45416  53.0407 264.1290 0004889 163.8336 130.6271 15.82249304  6031
STARLINK-1286,45417,53.0522,0.0002605,15.47326209,422.77943156154197,426.3236322866751,1 45417U 20019BK  26024.15572532  .00049600  00000+0  95800-3 0  9990,2 45417  53.0522 344.1471 0002605  35.0937 325.0241 15.47326209323323
STARLINK-1308,45419,53.0555,0.000165,15.3385034,463.2084251312217,465.4664416942478,1 45419U 20019BM  26024.58335647  .01424618  00000+0  38833-1 0  9991,2 45419  53.0555   2.1338 0001650 101.0928   2.0830 15.33850340  5839
STARLINK-1329,45531,53.0561,0.0007306,15.46602998,421.7004549618068,431.6436419434067,1 45531U 20025A   26023.48368827  .00090071  00000+0  17661-2 0  9995,2 45531  53.0561 298.7320 0007306  94.7733 265.4108 15.46602998318435
STARLINK-1338,45532,53.0547,0.0005096,15.45474019,426.5161978509641,433.45503642235053,1 45532U 20025B   26024.02515949  .00079329  00000+0  16209-2 0  9996,2 45532  53.0547 299.1200 0005096 111.3851 248.7699 15.45474019318476
STARLINK-1350,45535,53.0714,0.0002023,15.34837434,460.0197639487742,462.78704199581625,1 45535U 20025E   26023.61863823  .00016865  00000+0  50215-3 0  9992,2 45535  53.0714 244.6118 0002023 116.5152 243.6057 15.34837434319235
STARLINK-1362,45538,53.0545,0.0001745,15.06385616,546.0471621611614,548.4641241936297,1 45538U 20025H   26024.48006071  .00011154  00000+0  76680-3 0  9995,2 45538  53.0545 304.8027 0001745  98.5630 261.5557 15.06385616318432
STARLINK-1368,45540,53.0601,0.0002169,15.08388127,539.6241408344822,542.6257166591731,1 45540U 20025K   26024.58335647  .00109188  00000+0  68569-2 0  9994,2 45540  53.0601 304.6109 0002169  91.9375  87.7926 15.08388127  5838
STARLINK-1371,45542,53.053,0.0003564,15.40578208,441.97014629469595,446.833251879405,1 45542U 20025M   26024.46717851  .00100332  00000+0  24077-2 0  9992,2 45542  53.0530 299.6418 0003564 110.2393 249.8995 15.40578208318507
STARLINK-1372,45543,53.0528,0.0001455,15.06416906,546.1521132915213,548.1673746440156,1 45543U 20025N   26024.49211570  .00005508  00000+0  38818-3 0  9991,2 45543  53.0528 305.0301 0001455  83.5688 276.5467 15.06416906317524
STARLINK-1373,45544,53.0542,0.0004379,15.41876664,437.58495299071546,443.5567773390276,1 45544U 20025P   26024.49241354  .00067636  00000+0  15642-2 0  9994,2 45544  53.0542 299.9133 0004379 115.9215 244.2241 15.41876664318500
STARLINK-1294,45551,53.0367,0.0004491,15.80214199,326.82183694177183,332.84693684147715,1 45551U 20025W   26024.58335647  .00278707  00000+0  14118-2 0  9991,2 45551  53.0367 199.8531 0004491 264.8375 262.7205 15.80214199  5925
STARLINK-1325,45554,53.0365,0.0004893,16.04844581,257.7752671221533,264.2723498893565,1 45554U 20025Z   26024.53474440  .00788916  32293-3  11343-2 0  9992,2 45554  53.0365 186.5800 0004893 239.9605 120.0941 16.04844581320107
STARLINK-1327,45555,53.0535,0.0003429,15.44685995,429.96557083445714,434.6361691256898,1 45555U 20025AA  26024.40484339  .00095800  00000+0  20050-2 0  9992,2 45555  53.0535 278.9597 0003429 123.4971 236.6363 15.44685995318781
STARLINK-1356,45564,53.0625,0.0001312,15.35195318,459.4431998360751,461.2376163079525,1 45564U 20025AK  26024.58335647  .01131524  00000+0  29757-1 0  9995,2 45564  53.0625 282.8867 0001312  82.5388 253.1599 15.35195318  5582
STARLINK-1357,45565,53.0566,0.000554,15.45734569,425.44926525125356,432.99181740704626,1 45565U 20025AL  26023.92422007  .00034473  00000+0  70706-3 0  9996,2 45565  53.0566 253.0443 0005540 115.1234 245.0347 15.45734569319113
STARLINK-1361,45567,53.0553,0.0001386,15.31161257,471.39695393850434,473.29590794556134,1 45567U 20025AN  26024.58335647  .01572381  00000+0  46900-1 0  9997,2 45567  53.0553 283.3057 0001386  97.7352 285.0266 15.31161257  5689
STARLINK-1363,45568,53.0474,9.87e-05,15.63609132,376.5750844941376,377.90859627722875,1 45568U 20025AP  26023.64708108  .00078997  00000+0  83190-3 0  9997,2 45568  53.0474 260.6537 0000987  49.7904 310.3196 15.63609132318976
STARLINK-1366,45569,53.048,0.0001024,15.63324677,377.3694315503317,378.7531009552604,1 45569U 20025AQ  26023.07408524  .00067692  00000+0  72266-3 0  9996,2 45569  53.0480 264.0831 0001024  91.2084 268.9047 15.63324677318873
STARLINK-1376,45570,53.1583,0.0001404,15.29354896,476.7769944605834,478.70212459850063,1 45570U 20025AR  26024.01949306  .00002893  00000+0  11256-3 0  9995,2 45570  53.1583 285.0256 0001404 110.6433 249.4718 15.29354896318664
STARLINK-1320,45572,53.0526,0.0006487,15.58469179,387.69502142705824,396.47870987035094,1 45572U 20025AT  26024.58335647  .00162115  00000+0  20504-2 0  9995,2 45572  53.0526 201.8551 0006487 191.3445 146.4344 15.58469179  5961
STARLINK-1321,45573,53.0518,0.0003709,15.41076951,440.39968800997667,445.45955522989516,1 45573U 20025AU  26024.36811778  .00060730  00000+0  14447-2 0  9995,2 45573  53.0518 269.4003 0003709 113.6311 246.5082 15.41076951318612
STARLINK-1331,45578,53.0531,0.0001187,15.19399046,506.8383216289167,508.4730088076394,1 45578U 20025AZ  26024.58335647  .01810844  00000+0  76867-1 0  9993,2 45578  53.0531 274.0952 0001187 112.9405  78.6251 15.19399046  5782
STARLINK-1333,45580,53.1533,0.0001568,15.29377093,476.5982319975483,478.7482140834936,1 45580U 20025BB  26024.01692847  .00007955  00000+0  28753-3 0  9995,2 45580  53.1533 285.2947 0001568  92.7117 267.4063 15.29377093318666
STARLINK-1335,45581,53.0525,0.0001865,15.06425454,545.841983235945,548.4251091496753,1 45581U 20025BC  26023.41490964  .00019291  00000+0  13095-2 0  9993,2 45581  53.0525 279.8656 0001865  90.6270 269.4933 15.06425454318680
STARLINK-1337,45582,53.0532,0.0001608,15.25918857,486.92358832708123,489.1317468841826,1 45582U 20025BD  26024.58335647  .01754072  00000+0  61672-1 0  9996,2 45582  53.0532 273.5863 0001608  82.4972 192.2373 15.25918857  5839
STARLINK-1347,45586,53.05,0.0005557,15.44563642,428.8757654203928,436.4452857903507,1 45586U 20025BH  26024.30672828  .00029176  00000+0  62454-3 0  9995,2 45586  53.0500 242.3139 0005557 122.9434 237.2107 15.44563642319289
STARLINK-1364,45589,53.0537,0.0001534,15.31725964,469.6119931275116,471.71320484448097,1 45589U 20025BL  26024.58335647  .01642374  00000+0  47935-1 0  9990,2 45589  53.0537 273.2325 0001534 115.9757 319.1875 15.31725964  5831
STARLINK-1365,45590,53.0544,0.0001645,15.36302564,455.9298666903187,458.17864461342833,1 45590U 20025BM  26024.58335647  .00240737  00000+0  65034-2 0  9999,2 45590  53.0544 302.8846 0001645  80.0344  86.3457 15.36302564  5487
STARLINK-1443,45660,53.0545,0.0002152,15.06452911,545.5590979774179,548.5396982031552,1 45660U 20035D   26024.37044853 -.00013063  00000+0 -85841-3 0  9992,2 45660  53.0545 265.5755 0002152 152.3067 207.8037 15.06452911312056
STARLINK-1446,45663,53.0249,0.0005077,15.40798861,440.28685501595555,447.2137994080067,1 45663U 20035G   26024.21549919  .00027586  00000+0  67040-3 0  9995,2 45663  53.0249 210.3088 0005077 127.6521 232.4943 15.40798861312815
STARLINK-1448,45665,53.0599,0.0001398,15.31145945,471.4343983992512,473.3498063362722,1 45665U 20035J   26024.58335647  .01108093  00000+0  33145-1 0  9999,2 45665  53.0599 263.3375 0001398  86.3499 269.1130 15.31145945  5531
